[{"OBJECT_NAME":"MONITOR-4 (RS57S)","OBJECT_ID":"2023-091S","EPOCH":"2026-03-09T23:02:36.101184","MEAN_MOTION":15.25833519,"ECCENTRICITY":0.00137053,"INCLINATION":97.5193,"RA_OF_ASC_NODE":131.7407,"ARG_OF_PERICENTER":91.587,"MEAN_ANOMALY":268.6938,"EPHEMERIS_TYPE":0,"CLASSIFICATION_TYPE":"U","NORAD_CAT_ID":57182,"ELEMENT_SET_NO":999,"REV_AT_EPOCH":14915,"BSTAR":0.00052093098,"MEAN_MOTION_DOT":0.000133,"MEAN_MOTION_DDOT":0},{"OBJECT_NAME":"STARLINK-32608","OBJECT_ID":"2024-222L","EPOCH":"2026-03-09T04:29:56.452416","MEAN_MOTION":15.27590701,"ECCENTRICITY":0.00012751,"INCLINATION":43.0006,"RA_OF_ASC_NODE":138.8927,"ARG_OF_PERICENTER":238.5627,"MEAN_ANOMALY":121.51,"EPHEMERIS_TYPE":0,"CLASSIFICATION_TYPE":"U","NORAD_CAT_ID":62124,"ELEMENT_SET_NO":999,"REV_AT_EPOCH":7266,"BSTAR":0.0012608186,"MEAN_MOTION_DOT":0.00034607,"MEAN_MOTION_DDOT":0}]
